AKARI (ASTRO-F)         
1 28939U 06005A   09122.00212337  .00000053  00000-0  21870-4 0  9792
2 28939  98.2461 125.6578 0007743 330.8019  29.2746 14.57536058169361
FORMOSAT-3 FM6          
1 29047U 06011A   09122.09575877 -.00000359  00000-0 -12826-3 0  9421
2 29047  71.9795 115.0547 0053655 224.2868 135.3965 14.27098478161157
FORMOSAT-3 FM1          
1 29048U 06011B   09122.26831983  .00000390  00000-0  17471-3 0  9899
2 29048  71.9715  30.2221 0045667 174.7808 185.3786 14.27114984163658
FORMOSAT-3 FM5          
1 29049U 06011C   09122.42558994  .00000361  00000-0  16364-3 0  9287
2 29049  72.0219 178.7121 0037341 237.0341 122.7177 14.27120115159457
FORMOSAT-3 FM3          
1 29050U 06011D   09122.31324005  .00001097  00000-0  26646-3 0  2117
2 29050  72.0092   1.6747 0051794 126.5422 234.0467 14.54007655164577
FORMOSAT-3 FM4          
1 29051U 06011E   09121.82625797  .00000373  00000-0  16522-3 0  9907
2 29051  72.0044  89.0146 0068351 106.5075 254.3570 14.27116515161952
FORMOSAT-3 FM2          
1 29052U 06011F   09122.01421547  .00000360  00000-0  16273-3 0    53
2 29052  72.0352 150.5022 0042547 208.3822 151.4984 14.27113028160289
CLOUDSAT                
1 29107U 06016A   09121.71352751  .00000037  00000-0  18295-4 0  9715
2 29107  98.2113  67.0386 0001460  82.8485 277.2863 14.57121209160106
CALIPSO                 
1 29108U 06016B   09121.71372075  .00000136  00000-0  40170-4 0  9679
2 29108  98.2113  67.0883 0001345  84.7659 275.3674 14.57117957160086
HINODE (SOLAR-B)        
1 29479U 06041A   09122.16445760  .00000073  00000-0  23447-4 0  8420
2 29479  98.0841 127.6750 0015483 176.3531 183.7786 14.62894829139251
SJ-6C                   
1 29505U 06046A   09122.79938187  .00000336  00000-0  39760-4 0  8410
2 29505  97.6887 130.8249 0002224 202.7682 157.3424 14.90650067137322
SJ-6D                   
1 29506U 06046B   09122.81621842 -.00000019  00000-0  36239-5 0  8352
2 29506  97.6906 129.9798 0000949 309.8080  50.3046 14.89954008137261
COROT                   
1 29678U 06063A   09122.53230263  .00000092  00000-0  57375-4 0  7759
2 29678  89.9262  12.4566 0003288 313.2105  46.8795 13.98091525119733
AIM                     
1 31304U 07015A   09122.82809817  .00000420  00000-0  46905-4 0  6880
2 31304  97.7979 223.9235 0012359  17.0576 343.1054 14.92105599110033
FGRST (GLAST)           
1 33053U 08029A   09121.77637108  .00000278  00000-0  00000+0 0  2343
2 33053  25.5875 299.7104 0013952 326.4466  33.5241 15.04926806 48888
KORONAS-FOTON           
1 33504U 09003A   09122.48832822  .00000750  00000-0  50415-4 0   765
2 33504  82.4756 269.5924 0014126 233.8914 126.1005 15.05258351 13835
